[{"OBJECT_NAME":"KSF3-A","OBJECT_ID":"2023-001CF","EPOCH":"2024-01-29T03:08:03.217056","MEAN_MOTION":15.23709096,"ECCENTRICITY":0.0012062,"INCLINATION":97.449,"RA_OF_ASC_NODE":91.7861,"ARG_OF_PERICENTER":302.7419,"MEAN_ANOMALY":57.2655,"EPHEMERIS_TYPE":0,"CLASSIFICATION_TYPE":"U","NORAD_CAT_ID":55086,"ELEMENT_SET_NO":999,"REV_AT_EPOCH":5941,"BSTAR":0.0013786,"MEAN_MOTION_DOT":0.00033216,"MEAN_MOTION_DDOT":0},{"OBJECT_NAME":"SPACEBEE-167","OBJECT_ID":"2023-001CG","EPOCH":"2024-01-28T17:33:42.255648","MEAN_MOTION":15.30607751,"ECCENTRICITY":0.0010639,"INCLINATION":97.4447,"RA_OF_ASC_NODE":92.7716,"ARG_OF_PERICENTER":294.8462,"MEAN_ANOMALY":65.1672,"EPHEMERIS_TYPE":0,"CLASSIFICATION_TYPE":"U","NORAD_CAT_ID":55087,"ELEMENT_SET_NO":999,"REV_AT_EPOCH":5945,"BSTAR":0.0010277,"MEAN_MOTION_DOT":0.0003047,"MEAN_MOTION_DDOT":0},{"OBJECT_NAME":"LEMUR-2-FUENTETAJA-01","OBJECT_ID":"2023-001CH","EPOCH":"2024-01-28T15:45:58.683744","MEAN_MOTION":15.32944049,"ECCENTRICITY":0.0009377,"INCLINATION":97.4532,"RA_OF_ASC_NODE":93.8356,"ARG_OF_PERICENTER":287.6197,"MEAN_ANOMALY":72.4021,"EPHEMERIS_TYPE":0,"CLASSIFICATION_TYPE":"U","NORAD_CAT_ID":55088,"ELEMENT_SET_NO":999,"REV_AT_EPOCH":5949,"BSTAR":0.00049002,"MEAN_MOTION_DOT":0.00015548,"MEAN_MOTION_DDOT":0},{"OBJECT_NAME":"SPACEBEE-163","OBJECT_ID":"2023-001CJ","EPOCH":"2024-01-28T17:54:58.172832","MEAN_MOTION":15.33722471,"ECCENTRICITY":0.0010283,"INCLINATION":97.4408,"RA_OF_ASC_NODE":93.3041,"ARG_OF_PERICENTER":293.0562,"MEAN_ANOMALY":66.9595,"EPHEMERIS_TYPE":0,"CLASSIFICATION_TYPE":"U","NORAD_CAT_ID":55089,"ELEMENT_SET_NO":999,"REV_AT_EPOCH":5949,"BSTAR":0.001261,"MEAN_MOTION_DOT":0.0004128,"MEAN_MOTION_DDOT":0},{"OBJECT_NAME":"SPACEBEE-164","OBJECT_ID":"2023-001CL","EPOCH":"2024-01-28T16:30:35.924256","MEAN_MOTION":15.31642403,"ECCENTRICITY":0.0010667,"INCLINATION":97.4443,"RA_OF_ASC_NODE":92.9659,"ARG_OF_PERICENTER":293.5205,"MEAN_ANOMALY":66.4915,"EPHEMERIS_TYPE":0,"CLASSIFICATION_TYPE":"U","NORAD_CAT_ID":55091,"ELEMENT_SET_NO":999,"REV_AT_EPOCH":5946,"BSTAR":0.0010402,"MEAN_MOTION_DOT":0.00031854,"MEAN_MOTION_DDOT":0},{"OBJECT_NAME":"SPACEBEE-166","OBJECT_ID":"2023-001CM","EPOCH":"2024-01-28T15:08:37.250016","MEAN_MOTION":15.33813567,"ECCENTRICITY":0.0011513,"INCLINATION":97.4424,"RA_OF_ASC_NODE":93.4608,"ARG_OF_PERICENTER":292.5871,"MEAN_ANOMALY":67.4153,"EPHEMERIS_TYPE":0,"CLASSIFICATION_TYPE":"U","NORAD_CAT_ID":55092,"ELEMENT_SET_NO":999,"REV_AT_EPOCH":5949,"BSTAR":0.0011064,"MEAN_MOTION_DOT":0.00036305,"MEAN_MOTION_DDOT":0},{"OBJECT_NAME":"HUYGENS","OBJECT_ID":"2023-001CN","EPOCH":"2024-01-29T10:50:41.017632","MEAN_MOTION":15.19668407,"ECCENTRICITY":0.001333,"INCLINATION":97.4481,"RA_OF_ASC_NODE":90.8235,"ARG_OF_PERICENTER":296.731,"MEAN_ANOMALY":63.256,"EPHEMERIS_TYPE":0,"CLASSIFICATION_TYPE":"U","NORAD_CAT_ID":55093,"ELEMENT_SET_NO":999,"REV_AT_EPOCH":5938,"BSTAR":0.0003236,"MEAN_MOTION_DOT":6.851e-5,"MEAN_MOTION_DDOT":0},{"OBJECT_NAME":"SPACEBEE-165","OBJECT_ID":"2023-001CP","EPOCH":"2024-01-29T03:10:14.233152","MEAN_MOTION":15.32321912,"ECCENTRICITY":0.0010083,"INCLINATION":97.4435,"RA_OF_ASC_NODE":93.5811,"ARG_OF_PERICENTER":291.3787,"MEAN_ANOMALY":68.6378,"EPHEMERIS_TYPE":0,"CLASSIFICATION_TYPE":"U","NORAD_CAT_ID":55094,"ELEMENT_SET_NO":999,"REV_AT_EPOCH":5954,"BSTAR":0.0011689,"MEAN_MOTION_DOT":0.00036588,"MEAN_MOTION_DDOT":0},{"OBJECT_NAME":"SPACEBEE-162","OBJECT_ID":"2023-001CQ","EPOCH":"2024-01-29T04:08:40.900704","MEAN_MOTION":15.31922007,"ECCENTRICITY":0.0010708,"INCLINATION":97.4441,"RA_OF_ASC_NODE":93.5416,"ARG_OF_PERICENTER":290.0707,"MEAN_ANOMALY":69.9381,"EPHEMERIS_TYPE":0,"CLASSIFICATION_TYPE":"U","NORAD_CAT_ID":55095,"ELEMENT_SET_NO":999,"REV_AT_EPOCH":5954,"BSTAR":0.0011586,"MEAN_MOTION_DOT":0.00035819,"MEAN_MOTION_DDOT":0},{"OBJECT_NAME":"SPACEBEE-161","OBJECT_ID":"2023-001CR","EPOCH":"2024-01-29T03:39:07.398144","MEAN_MOTION":15.32109111,"ECCENTRICITY":0.0010704,"INCLINATION":97.444,"RA_OF_ASC_NODE":93.5674,"ARG_OF_PERICENTER":290.0711,"MEAN_ANOMALY":69.9378,"EPHEMERIS_TYPE":0,"CLASSIFICATION_TYPE":"U","NORAD_CAT_ID":55096,"ELEMENT_SET_NO":999,"REV_AT_EPOCH":5954,"BSTAR":0.0011598,"MEAN_MOTION_DOT":0.00036067,"MEAN_MOTION_DDOT":0},{"OBJECT_NAME":"SPACEBEE-160","OBJECT_ID":"2023-001CS","EPOCH":"2024-01-28T17:48:18.791424","MEAN_MOTION":15.32312953,"ECCENTRICITY":0.0010696,"INCLINATION":97.4435,"RA_OF_ASC_NODE":93.1883,"ARG_OF_PERICENTER":291.9097,"MEAN_ANOMALY":68.1008,"EPHEMERIS_TYPE":0,"CLASSIFICATION_TYPE":"U","NORAD_CAT_ID":55097,"ELEMENT_SET_NO":999,"REV_AT_EPOCH":5948,"BSTAR":0.001088,"MEAN_MOTION_DOT":0.00034036,"MEAN_MOTION_DDOT":0},{"OBJECT_NAME":"BDSAT-2","OBJECT_ID":"2023-001CT","EPOCH":"2024-01-29T02:44:15.161568","MEAN_MOTION":15.25856312,"ECCENTRICITY":0.0012289,"INCLINATION":97.4509,"RA_OF_ASC_NODE":92.3968,"ARG_OF_PERICENTER":295.6079,"MEAN_ANOMALY":64.3889,"EPHEMERIS_TYPE":0,"CLASSIFICATION_TYPE":"U","NORAD_CAT_ID":55098,"ELEMENT_SET_NO":999,"REV_AT_EPOCH":5944,"BSTAR":0.00078958,"MEAN_MOTION_DOT":0.00020219,"MEAN_MOTION_DDOT":0},{"OBJECT_NAME":"SPACEBEE-156","OBJECT_ID":"2023-001CU","EPOCH":"2024-01-28T17:15:44.007840","MEAN_MOTION":15.32497026,"ECCENTRICITY":0.0010654,"INCLINATION":97.4439,"RA_OF_ASC_NODE":93.2226,"ARG_OF_PERICENTER":291.4163,"MEAN_ANOMALY":68.5942,"EPHEMERIS_TYPE":0,"CLASSIFICATION_TYPE":"U","NORAD_CAT_ID":55099,"ELEMENT_SET_NO":999,"REV_AT_EPOCH":5948,"BSTAR":0.0011233,"MEAN_MOTION_DOT":0.00035352,"MEAN_MOTION_DDOT":0},{"OBJECT_NAME":"SPACEBEE-158","OBJECT_ID":"2023-001CV","EPOCH":"2024-01-29T03:39:39.468096","MEAN_MOTION":15.32309147,"ECCENTRICITY":0.0011279,"INCLINATION":97.445,"RA_OF_ASC_NODE":93.6012,"ARG_OF_PERICENTER":291.6322,"MEAN_ANOMALY":68.3718,"EPHEMERIS_TYPE":0,"CLASSIFICATION_TYPE":"U","NORAD_CAT_ID":55100,"ELEMENT_SET_NO":999,"REV_AT_EPOCH":5954,"BSTAR":0.0012075,"MEAN_MOTION_DOT":0.00037805,"MEAN_MOTION_DDOT":0},{"OBJECT_NAME":"SPACEBEE-159","OBJECT_ID":"2023-001CW","EPOCH":"2024-01-29T04:04:46.834464","MEAN_MOTION":15.33808602,"ECCENTRICITY":0.0011556,"INCLINATION":97.4437,"RA_OF_ASC_NODE":93.9969,"ARG_OF_PERICENTER":289.4285,"MEAN_ANOMALY":70.5709,"EPHEMERIS_TYPE":0,"CLASSIFICATION_TYPE":"U","NORAD_CAT_ID":55101,"ELEMENT_SET_NO":999,"REV_AT_EPOCH":5957,"BSTAR":0.0012523,"MEAN_MOTION_DOT":0.00041123,"MEAN_MOTION_DDOT":0},{"OBJECT_NAME":"SPACEBEE-157","OBJECT_ID":"2023-001CX","EPOCH":"2024-01-29T02:50:16.610784","MEAN_MOTION":15.34026563,"ECCENTRICITY":0.0010279,"INCLINATION":97.4422,"RA_OF_ASC_NODE":93.9972,"ARG_OF_PERICENTER":290.75,"MEAN_ANOMALY":69.2641,"EPHEMERIS_TYPE":0,"CLASSIFICATION_TYPE":"U","NORAD_CAT_ID":55102,"ELEMENT_SET_NO":999,"REV_AT_EPOCH":5957,"BSTAR":0.0012548,"MEAN_MOTION_DOT":0.00041473,"MEAN_MOTION_DDOT":0},{"OBJECT_NAME":"KUWAITSAT-1","OBJECT_ID":"2023-001CY","EPOCH":"2024-01-29T02:49:50.459232","MEAN_MOTION":15.19245991,"ECCENTRICITY":0.0014071,"INCLINATION":97.4503,"RA_OF_ASC_NODE":90.6476,"ARG_OF_PERICENTER":300.589,"MEAN_ANOMALY":59.3956,"EPHEMERIS_TYPE":0,"CLASSIFICATION_TYPE":"U","NORAD_CAT_ID":55103,"ELEMENT_SET_NO":999,"REV_AT_EPOCH":5933,"BSTAR":0.00039157,"MEAN_MOTION_DOT":8.207e-5,"MEAN_MOTION_DDOT":0},{"OBJECT_NAME":"SHARJAHSAT-1","OBJECT_ID":"2023-001CZ","EPOCH":"2024-01-29T10:26:13.536960","MEAN_MOTION":15.17814732,"ECCENTRICITY":0.0010162,"INCLINATION":97.448,"RA_OF_ASC_NODE":89.8229,"ARG_OF_PERICENTER":329.5114,"MEAN_ANOMALY":30.5528,"EPHEMERIS_TYPE":0,"CLASSIFICATION_TYPE":"U","NORAD_CAT_ID":55104,"ELEMENT_SET_NO":999,"REV_AT_EPOCH":5931,"BSTAR":0.00046159,"MEAN_MOTION_DOT":9.285e-5,"MEAN_MOTION_DDOT":0},{"OBJECT_NAME":"AAC-AIS-SAT-1","OBJECT_ID":"2023-001DC","EPOCH":"2024-01-28T18:23:11.578272","MEAN_MOTION":14.78106561,"ECCENTRICITY":0.0010766,"INCLINATION":98.0208,"RA_OF_ASC_NODE":93.7708,"ARG_OF_PERICENTER":239.6942,"MEAN_ANOMALY":120.3204,"EPHEMERIS_TYPE":0,"CLASSIFICATION_TYPE":"U","NORAD_CAT_ID":55107,"ELEMENT_SET_NO":999,"REV_AT_EPOCH":4905,"BSTAR":0.00069745,"MEAN_MOTION_DOT":4.999e-5,"MEAN_MOTION_DDOT":0},{"OBJECT_NAME":"ASTROCAST-0402","OBJECT_ID":"2023-001DE","EPOCH":"2024-01-28T17:46:22.744128","MEAN_MOTION":15.10210969,"ECCENTRICITY":0.0006005,"INCLINATION":97.619,"RA_OF_ASC_NODE":107.7078,"ARG_OF_PERICENTER":46.1608,"MEAN_ANOMALY":314.0116,"EPHEMERIS_TYPE":0,"CLASSIFICATION_TYPE":"U","NORAD_CAT_ID":55109,"ELEMENT_SET_NO":999,"REV_AT_EPOCH":1238,"BSTAR":0.00040276,"MEAN_MOTION_DOT":6.521e-5,"MEAN_MOTION_DDOT":0},{"OBJECT_NAME":"ASTROCAST-0401","OBJECT_ID":"2023-001DF","EPOCH":"2024-01-28T18:02:29.573952","MEAN_MOTION":15.10109672,"ECCENTRICITY":0.0010898,"INCLINATION":97.6191,"RA_OF_ASC_NODE":107.6994,"ARG_OF_PERICENTER":346.2812,"MEAN_ANOMALY":13.8119,"EPHEMERIS_TYPE":0,"CLASSIFICATION_TYPE":"U","NORAD_CAT_ID":55110,"ELEMENT_SET_NO":999,"REV_AT_EPOCH":5906,"BSTAR":0.00046918,"MEAN_MOTION_DOT":7.594e-5,"MEAN_MOTION_DDOT":0},{"OBJECT_NAME":"ASTROCAST-0403","OBJECT_ID":"2023-001DG","EPOCH":"2024-01-28T20:54:14.394816","MEAN_MOTION":15.09613283,"ECCENTRICITY":0.0009522,"INCLINATION":97.6227,"RA_OF_ASC_NODE":107.8791,"ARG_OF_PERICENTER":118.9861,"MEAN_ANOMALY":241.2324,"EPHEMERIS_TYPE":0,"CLASSIFICATION_TYPE":"U","NORAD_CAT_ID":55111,"ELEMENT_SET_NO":999,"REV_AT_EPOCH":1240,"BSTAR":0.00029516,"MEAN_MOTION_DOT":4.685e-5,"MEAN_MOTION_DDOT":0},{"OBJECT_NAME":"ASTROCAST-0404","OBJECT_ID":"2023-001DH","EPOCH":"2024-01-29T10:29:37.075488","MEAN_MOTION":15.10003535,"ECCENTRICITY":0.0011634,"INCLINATION":97.6257,"RA_OF_ASC_NODE":108.5346,"ARG_OF_PERICENTER":133.6267,"MEAN_ANOMALY":226.5929,"EPHEMERIS_TYPE":0,"CLASSIFICATION_TYPE":"U","NORAD_CAT_ID":55112,"ELEMENT_SET_NO":999,"REV_AT_EPOCH":1249,"BSTAR":0.00044898,"MEAN_MOTION_DOT":7.244e-5,"MEAN_MOTION_DDOT":0}]
